GLOBALSTAR M024         
1 25883U 99043A   25063.82818802 -.00000124  00000+0 -21049-2 0  9990
2 25883  51.9987 256.0960 0000583 303.6982  69.5673 11.10163585103272
GLOBALSTAR M027         
1 25884U 99043B   25063.86364702 -.00000075  00000+0 -43364-3 0  9990
2 25884  52.0250 331.0419 0021089 181.7359 178.3364 11.04371082129717
GLOBALSTAR M054         
1 25885U 99043C   25063.45968456 -.00000136  00000+0 -16411-2 0  9992
2 25885  52.0125 116.8141 0005596 357.0617 105.1199 11.39212967107118
GLOBALSTAR M053         
1 25886U 99043D   25063.91137073 -.00000080  00000+0 -33300-3 0  9992
2 25886  51.9989  57.0377 0003308 262.6169 129.2292 11.27663371107683
GLOBALSTAR M050         
1 25908U 99049B   25063.90483405 -.00000004  00000+0  94850-3 0  9997
2 25908  52.0006  43.0998 0009050 182.3327 214.8171 12.07450167135592
GLOBALSTAR M033         
1 25909U 99049C   25063.91536391 -.00000121  00000+0 -27678-3 0  9997
2 25909  51.9905 282.1098 0014098  51.1956 309.0148 12.20286772523018
GLOBALSTAR M055         
1 25910U 99049D   25063.86688637 -.00000066  00000+0  23844-3 0  9992
2 25910  52.0022 298.0744 0006220 277.6960  82.3185 12.29422314155458
